NORAD_CAT_ID,OBJECT_NAME,OBJECT_TYPE,EPOCH,MEAN_MOTION,ECCENTRICITY,INCLINATION,RA_OF_ASC_NODE,ARG_OF_PERICENTER,MEAN_ANOMALY,BSTAR,MEAN_MOTION_DOT,MEAN_MOTION_DDOT,TLE_LINE0,TLE_LINE1,TLE_LINE2,SEMIMAJOR_AXIS,PERIOD,APOGEE,PERIGEE,DECAYED
51749.0,STARLINK-3451,PAYLOAD,2023-11-20 17:54:52,15.08841984,0.0001375,53.2162,129.9556,88.0198,272.0952,5.1893e-06,-2.05e-06,0.0,0 STARLINK-3451,1 51749U 22016AM  23324.74643933 -.00000205  00000-0  51893-5 0  9999,2 51749  53.2162 129.9556 0001375  88.0198 272.0952 15.08841984 97869,6917.874,95.437,540.691,538.788,0.0
51749.0,STARLINK-3451,PAYLOAD,2023-11-20 21:05:38,15.08842657,0.0001368,53.2162,129.3605,87.5642,272.5507,3.4298e-07,-2.82e-06,0.0,0 STARLINK-3451,1 51749U 22016AM  23324.87891837 -.00000282  00000-0  34298-6 0  9997,2 51749  53.2162 129.3605 0001368  87.5642 272.5507 15.08842657 96776,6917.872,95.437,540.684,538.791,0.0
51749.0,STARLINK-3451,PAYLOAD,2023-11-21 11:24:06,15.08842809,0.0001426,53.2166,126.6829,88.693,271.4225,1.8813e-05,1.1e-07,0.0,0 STARLINK-3451,1 51749U 22016AM  23325.47507720  .00000011  00000-0  18813-4 0  9991,2 51749  53.2166 126.6829 0001426  88.6930 271.4225 15.08842809 96869,6917.872,95.437,540.723,538.75,0.0
51749.0,STARLINK-3451,PAYLOAD,2023-11-21 19:21:01,15.08847326,0.0001402,53.2167,125.1951,87.489,272.6263,5.5428e-05,5.94e-06,0.0,0 STARLINK-3451,1 51749U 22016AM  23325.80627294  .00000594  00000-0  55428-4 0  9996,2 51749  53.2167 125.1951 0001402  87.4890 272.6263 15.08847326 96916,6917.858,95.437,540.693,538.753,0.0
51749.0,STARLINK-3451,PAYLOAD,2023-11-22 11:14:53,15.08839521,0.0001388,53.2168,122.2222,86.734,273.3811,7.4882e-05,9.04e-06,0.0,0 STARLINK-3451,1 51749U 22016AM  23326.46867682  .00000904  00000-0  74882-4 0  9996,2 51749  53.2168 122.2222 0001388  86.7340 273.3811 15.08839521 98121,6917.882,95.438,540.707,538.787,0.0
51749.0,STARLINK-3451,PAYLOAD,2023-11-22 14:25:39,15.08843171,0.0001409,53.2169,121.6274,86.9677,273.1477,0.00010488,1.382e-05,0.0,0 STARLINK-3451,1 51749U 22016AM  23326.60115394  .00001382  00000-0  10488-3 0  9990,2 51749  53.2169 121.6274 0001409  86.9677 273.1477 15.08843171 97032,6917.871,95.437,540.71,538.761,0.0
51749.0,STARLINK-3451,PAYLOAD,2023-11-22 17:36:25,15.08846292,0.0001434,53.217,121.0327,87.4421,272.6735,0.00013156,1.807e-05,0.0,0 STARLINK-3451,1 51749U 22016AM  23326.73363133  .00001807  00000-0  13156-3 0  9997,2 51749  53.2170 121.0327 0001434  87.4421 272.6735 15.08846292 97058,6917.861,95.437,540.718,538.734,0.0
51749.0,STARLINK-3451,PAYLOAD,2023-11-23 09:30:18,15.08830389,0.0001643,53.218,118.0595,111.8583,248.2584,-1.3718e-05,-5.06e-06,0.0,0 STARLINK-3451,1 51749U 22016AM  23327.39604912 -.00000506  00000-0 -13718-4 0  9995,2 51749  53.2180 118.0595 0001643 111.8583 248.2584 15.08830389 98260,6917.91,95.438,540.911,538.638,0.0
51749.0,STARLINK-3451,PAYLOAD,2023-11-23 14:16:28,15.08831191,0.0001603,53.2181,117.1664,92.1505,267.967,-4.3806e-05,-9.85e-06,0.0,0 STARLINK-3451,1 51749U 22016AM  23327.59477048 -.00000985  00000-0 -43806-4 0  9997,2 51749  53.2181 117.1664 0001603  92.1505 267.9670 15.08831191 97185,6917.907,95.438,540.881,538.663,0.0
51749.0,STARLINK-3451,PAYLOAD,2023-11-23 17:27:14,15.08830602,0.0001488,53.2178,116.5718,104.6584,255.4573,-5.3781e-05,-1.144e-05,0.0,0 STARLINK-3451,1 51749U 22016AM  23327.72725072 -.00001144  00000-0 -53781-4 0  9996,2 51749  53.2178 116.5718 0001488 104.6584 255.4573 15.08830602 97204,6917.909,95.438,540.803,538.745,0.0
51749.0,STARLINK-3451,PAYLOAD,2023-11-24 09:21:05,15.08840108,0.0001693,53.2177,113.5974,131.719,228.3947,-2.4989e-05,-6.86e-06,0.0,0 STARLINK-3451,1 51749U 22016AM  23328.38964691 -.00000686  00000-0 -24989-4 0  9999,2 51749  53.2177 113.5974 0001693 131.7190 228.3947 15.08840108 98416,6917.88,95.438,540.916,538.574,0.0
51749.0,STARLINK-3451,PAYLOAD,2023-11-24 14:07:14,15.08846591,0.0001452,53.2175,112.7077,121.1198,238.9936,6.2944e-05,7.14e-06,0.0,0 STARLINK-3451,1 51749U 22016AM  23328.58836093  .00000714  00000-0  62944-4 0  9998,2 51749  53.2175 112.7077 0001452 121.1198 238.9936 15.08846591 97330,6917.86,95.437,540.73,538.721,0.0
51749.0,STARLINK-3451,PAYLOAD,2023-11-24 17:18:00,15.08847438,0.0001326,53.2161,112.1125,103.9487,256.1653,0.00017703,2.531e-05,0.0,0 STARLINK-3451,1 51749U 22016AM  23328.72084129  .00002531  00000-0  17703-3 0  9990,2 51749  53.2161 112.1125 0001326 103.9487 256.1653 15.08847438 98466,6917.858,95.437,540.64,538.805,0.0
51749.0,STARLINK-3451,PAYLOAD,2023-11-25 13:58:01,15.08847499,0.0001328,53.2165,108.2474,89.8656,270.2488,0.00035174,5.316e-05,0.0,0 STARLINK-3451,1 51749U 22016AM  23329.58196387  .00005316  00000-0  35174-3 0  9991,2 51749  53.2165 108.2474 0001328  89.8656 270.2488 15.08847499 97486,6917.857,95.437,540.641,538.804,0.0
51749.0,STARLINK-3451,PAYLOAD,2023-11-25 18:44:10,15.08862591,0.00014,53.2169,107.3498,93.745,266.3703,0.00058459,9.034e-05,0.0,0 STARLINK-3451,1 51749U 22016AM  23329.78067698  .00009034  00000-0  58459-3 0  9997,2 51749  53.2169 107.3498 0001400  93.7450 266.3703 15.08862591 97513,6917.811,95.436,540.645,538.708,0.0
51749.0,STARLINK-3451,PAYLOAD,2023-11-26 09:02:38,15.08850841,0.0001283,53.2167,104.6804,80.9466,279.1672,8.9551e-05,1.138e-05,0.0,0 STARLINK-3451,1 51749U 22016AM  23330.37683703  .00001138  00000-0  89551-4 0  9990,2 51749  53.2167 104.6804 0001283  80.9466 279.1672 15.08850841 98711,6917.847,95.437,540.6,538.825,0.0
51749.0,STARLINK-3451,PAYLOAD,2023-11-26 13:48:47,15.08852851,0.0001734,53.216,103.786,105.9067,254.2116,9.3467e-05,1.2e-05,0.0,0 STARLINK-3451,1 51749U 22016AM  23330.57555346  .00001200  00000-0  93467-4 0  9994,2 51749  53.2160 103.7860 0001734 105.9067 254.2116 15.08852851 97632,6917.841,95.437,540.906,538.507,0.0
51749.0,STARLINK-3451,PAYLOAD,2023-11-26 15:24:10,15.08853224,0.0001625,53.2166,103.489,112.1458,247.9706,8.4714e-05,1.061e-05,0.0,0 STARLINK-3451,1 51749U 22016AM  23330.64179245  .00001061  00000-0  84714-4 0  9992,2 51749  53.2166 103.4890 0001625 112.1458 247.9706 15.08853224 97641,6917.84,95.437,540.829,538.581,0.0
51749.0,STARLINK-3451,PAYLOAD,2023-11-27 12:04:12,15.08835094,0.0001621,53.2175,99.6174,103.7073,256.4099,-0.00020118,-3.488e-05,0.0,0 STARLINK-3451,1 51749U 22016AM  23331.50292051 -.00003488  00000-0 -20118-3 0  9993,2 51749  53.2175  99.6174 0001621 103.7073 256.4099 15.08835094 98889,6917.895,95.438,540.882,538.639,0.0
51749.0,STARLINK-3451,PAYLOAD,2023-11-27 13:39:35,15.08834213,0.0001518,53.2172,99.3218,110.6804,249.4351,-0.00019622,-3.409e-05,0.0,0 STARLINK-3451,1 51749U 22016AM  23331.56916074 -.00003409  00000-0 -19622-3 0  9998,2 51749  53.2172  99.3218 0001518 110.6804 249.4351 15.08834213 97789,6917.898,95.438,540.813,538.713,0.0
51749.0,STARLINK-3451,PAYLOAD,2023-11-27 18:25:45,15.08832418,0.0001371,53.2172,98.4307,108.0419,252.0723,-0.00014131,-2.536e-05,0.0,0 STARLINK-3451,1 51749U 22016AM  23331.76788298 -.00002536  00000-0 -14131-3 0  9995,2 51749  53.2172  98.4307 0001371 108.0419 252.0723 15.08832418 97810,6917.904,95.438,540.717,538.82,0.0
51749.0,STARLINK-3451,PAYLOAD,2023-11-28 13:30:22,15.08840856,0.0001504,53.2178,94.8664,82.5781,277.5382,0.00011937,1.612e-05,0.0,0 STARLINK-3451,1 51749U 22016AM  23332.56276412  .00001612  00000-0  11937-3 0  9997,2 51749  53.2178  94.8664 0001504  82.5781 277.5382 15.08840856 97939,6917.878,95.438,540.783,538.702,0.0
51749.0,STARLINK-3451,PAYLOAD,2023-11-28 18:16:32,15.08849514,0.0001456,53.2172,93.9706,96.918,263.1978,0.00042507,6.485e-05,0.0,0 STARLINK-3451,1 51749U 22016AM  23332.76148326  .00006485  00000-0  42507-3 0  9991,2 51749  53.2172  93.9706 0001456  96.9180 263.1978 15.08849514 99077,6917.851,95.437,540.724,538.709,0.0
51749.0,STARLINK-3451,PAYLOAD,2023-11-29 11:45:46,15.08843575,0.0001459,53.2183,90.696,98.9237,261.192,0.00027948,4.163e-05,0.0,0 STARLINK-3451,1 51749U 22016AM  23333.49012639  .00004163  00000-0  27948-3 0  9992,2 51749  53.2183  90.6960 0001459  98.9237 261.1920 15.08843575 99181,6917.869,95.437,540.744,538.725,0.0
51749.0,STARLINK-3451,PAYLOAD,2023-11-29 14:56:32,15.08849522,0.0001464,53.2182,90.1005,98.5219,261.5939,0.00033352,5.025e-05,0.0,0 STARLINK-3451,1 51749U 22016AM  23333.62260326  .00005025  00000-0  33352-3 0  9999,2 51749  53.2182  90.1005 0001464  98.5219 261.5939 15.08849522 98098,6917.851,95.437,540.729,538.704,0.0
51749.0,STARLINK-3451,PAYLOAD,2023-11-30 11:36:33,15.08839806,0.0001381,53.2176,86.2418,101.2901,258.8246,-2.9221e-05,-7.53e-06,0.0,0 STARLINK-3451,1 51749U 22016AM  23334.48372672 -.00000753  00000-0 -29221-4 0  9998,2 51749  53.2176  86.2418 0001381 101.2901 258.8246 15.08839806 99335,6917.881,95.438,540.701,538.791,0.0
51749.0,STARLINK-3451,PAYLOAD,2023-12-01 14:38:07,15.08845425,0.0002021,53.2177,81.187,57.8917,302.2271,0.00042013,6.406e-05,0.0,0 STARLINK-3451,1 51749U 22016AM  23335.60981309  .00006406  00000-0  42013-3 0  9998,2 51749  53.2177  81.1870 0002021  57.8917 302.2271 15.08845425 99502,6917.864,95.437,541.127,538.331,0.0
51749.0,STARLINK-3451,PAYLOAD,2023-12-02 11:18:07,15.08881374,0.0001877,53.2173,77.3216,63.9976,296.1209,0.00097602,0.00015297,0.0,0 STARLINK-3451,1 51749U 22016AM  23336.47091678  .00015297  00000-0  97602-3 0  9997,2 51749  53.2173  77.3216 0001877  63.9976 296.1209 15.08881374 99639,6917.754,95.435,540.917,538.32,0.0
51749.0,STARLINK-3451,PAYLOAD,2023-12-02 14:28:53,15.08875853,0.0001763,53.2179,76.7279,70.2077,289.9105,0.00083403,0.00013023,0.0,0 STARLINK-3451,1 51749U 22016AM  23336.60339521  .00013023  00000-0  83403-3 0  9993,2 51749  53.2179  76.7279 0001763  70.2077 289.9105 15.08875853 98543,6917.771,95.435,540.855,538.416,0.0
51749.0,STARLINK-3451,PAYLOAD,2023-12-03 11:08:54,15.08835958,0.0001287,53.2171,72.8579,94.9362,265.1777,-0.00028791,-4.867e-05,0.0,0 STARLINK-3451,1 51749U 22016AM  23337.46451977 -.00004867  00000-0 -28791-3 0  9995,2 51749  53.2171  72.8579 0001287  94.9362 265.1777 15.08835958 99786,6917.893,95.438,540.648,538.867,0.0
